{
 "type": "FeatureCollection",
 "features": [
  {
   "type": "Feature",
   "properties": {
    "name": "154 Low St house",
    "source": "OSM way 196723669"
   },
   "geometry": {
    "type": "Polygon",
    "coordinates": [
     [
      [
       -70.8951634,
       42.8131828
      ],
      [
       -70.8951329,
       42.8131985
      ],
      [
       -70.8951501,
       42.8132167
      ],
      [
       -70.8951703,
       42.8132063
      ],
      [
       -70.8952056,
       42.8132435
      ],
      [
       -70.8950998,
       42.8132889
      ],
      [
       -70.8950106,
       42.8131948
      ],
      [
       -70.8950913,
       42.8131534
      ],
      [
       -70.8951159,
       42.8131792
      ],
      [
       -70.8951456,
       42.813164
      ],
      [
       -70.8951634,
       42.8131828
      ]
     ]
    ]
   }
  }
 ]
}