{"type":"FeatureCollection","features":[{"type":"Feature","geometry":{"type":"Polygon","coordinates":[[[-70.894883708890703,42.813220259985982],[-70.89505887879541,42.813393561366212],[-70.895349995737845,42.813247935616261],[-70.895359504218519,42.81323374886955],[-70.895356814993477,42.813214884131298],[-70.895349946233182,42.813204696034489],[-70.895216256118417,42.813044408610025],[-70.894883708890703,42.813220259985982]]]},"properties":{"SITE_ADDR":"154 LOW ST","LOT_SIZE":8603,"LOC_ID":"M_249480_951578","YEAR_BUILT":1928,"OWNER1":"MCCARTY RYAN K"}}]}